NORAD_CAT_ID,OBJECT_NAME,OBJECT_TYPE,EPOCH,MEAN_MOTION,ECCENTRICITY,INCLINATION,RA_OF_ASC_NODE,ARG_OF_PERICENTER,MEAN_ANOMALY,BSTAR,MEAN_MOTION_DOT,MEAN_MOTION_DDOT,TLE_LINE0,TLE_LINE1,TLE_LINE2,SEMIMAJOR_AXIS,PERIOD,APOGEE,PERIGEE,DECAYED
54054.0,STARLINK-5163,PAYLOAD,2024-08-19 08:28:45,15.08843022,0.0001101,53.218,11.1207,96.2704,263.8414,0.0001478,2.065e-05,0.0,0 STARLINK-5163,1 54054U 22136D   24232.35330452  .00002065  00000-0  14780-3 0  9996,2 54054  53.2180  11.1207 0001101  96.2704 263.8414 15.08843022101678,6917.871,95.437,540.498,538.974,0.0
54054.0,STARLINK-5163,PAYLOAD,2024-08-20 01:58:00,15.0883625,0.0001236,53.2186,7.8468,57.6142,302.497,1.0944e-05,-1.14e-06,0.0,0 STARLINK-5163,1 54054U 22136D   24233.08195546 -.00000114  00000-0  10944-4 0  9993,2 54054  53.2186   7.8468 0001236  57.6142 302.4970 15.08836250101785,6917.892,95.438,540.612,538.902,0.0
54054.0,STARLINK-5163,PAYLOAD,2024-08-20 13:05:43,15.08796034,0.0001275,53.2178,5.765,61.5005,298.6115,0.00048968,7.505e-05,0.0,0 STARLINK-5163,1 54054U 22136D   24233.54564671  .00007505  00000-0  48968-3 0  9999,2 54054  53.2178   5.7650 0001275  61.5005 298.6115 15.08796034101851,6918.015,95.44,540.762,538.998,0.0
54054.0,STARLINK-5163,PAYLOAD,2024-08-20 14:41:05,15.0883937,0.0001258,53.2186,5.4731,88.9518,271.1619,6.4851e-06,-1.85e-06,0.0,0 STARLINK-5163,1 54054U 22136D   24233.61187404 -.00000185  00000-0  64851-5 0  9991,2 54054  53.2186   5.4731 0001258  88.9518 271.1619 15.08839370101384,6917.882,95.438,540.618,538.877,0.0
54054.0,STARLINK-5163,PAYLOAD,2024-08-20 17:51:51,15.08848182,9.78e-05,53.2173,4.873,68.9134,291.1962,7.158e-05,8.52e-06,0.0,0 STARLINK-5163,1 54054U 22136D   24233.74434660  .00000852  00000-0  71580-4 0  9990,2 54054  53.2173   4.8730 0000978  68.9134 291.1962 15.08848182101881,6917.855,95.437,540.397,539.044,0.0
54054.0,STARLINK-5163,PAYLOAD,2024-08-21 12:56:30,15.08827291,0.0001483,53.219,1.3107,59.9613,300.1526,6.8682e-05,8.05e-06,0.0,0 STARLINK-5163,1 54054U 22136D   24234.53924246  .00000805  00000-0  68682-4 0  9999,2 54054  53.2190   1.3107 0001483  59.9613 300.1526 15.08827291102004,6917.919,95.438,540.81,538.758,0.0
54054.0,STARLINK-5163,PAYLOAD,2024-08-21 14:31:53,15.08828362,0.0001375,53.2185,1.0126,71.5986,288.5155,7.9146e-05,9.72e-06,0.0,0 STARLINK-5163,1 54054U 22136D   24234.60548162  .00000972  00000-0  79146-4 0  9998,2 54054  53.2185   1.0126 0001375  71.5986 288.5155 15.08828362101533,6917.916,95.438,540.732,538.83,0.0
54054.0,STARLINK-5163,PAYLOAD,2024-08-21 16:07:16,15.08831084,0.0001463,53.2191,0.7155,65.2111,294.9034,0.00010447,1.375e-05,0.0,0 STARLINK-5163,1 54054U 22136D   24234.67172050  .00001375  00000-0  10447-3 0  9990,2 54054  53.2191   0.7155 0001463  65.2111 294.9034 15.08831084101549,6917.908,95.438,540.785,538.761,0.0
